NORAD_CAT_ID,OBJECT_NAME,OBJECT_TYPE,EPOCH,MEAN_MOTION,ECCENTRICITY,INCLINATION,RA_OF_ASC_NODE,ARG_OF_PERICENTER,MEAN_ANOMALY,BSTAR,MEAN_MOTION_DOT,MEAN_MOTION_DDOT,TLE_LINE0,TLE_LINE1,TLE_LINE2,SEMIMAJOR_AXIS,PERIOD,APOGEE,PERIGEE,DECAYED
49176.0,STARLINK-3069,PAYLOAD,2022-08-07 13:02:30,14.96714898,0.0003188999999999,69.9979,317.4092,260.3751,99.7047,-3.4541e-05,-4.87e-06,0.0,0 STARLINK-3069,1 49176U 21082AY  22219.54341347 -.00000487  00000-0 -34541-4 0  9999,2 49176  69.9979 317.4092 0003189 260.3751  99.7047 14.96714898 50726,6955.191999999999,96.211,579.275,574.839,0.0
49176.0,STARLINK-3069,PAYLOAD,2022-08-07 16:14:59,14.96715576,0.0003131999999999,69.9981,317.0738,258.5795,101.5011,-1.4138e-05,-2.53e-06,0.0,0 STARLINK-3069,1 49176U 21082AY  22219.67707638 -.00000253  00000-0 -14138-4 0  9993,2 49176  69.9981 317.0738 0003132 258.5795 101.5011 14.96715576 50746,6955.19,96.211,579.2330000000002,574.876,0.0
49176.0,STARLINK-3069,PAYLOAD,2022-08-08 05:04:53,14.96722294,0.0003176,69.9978,315.7284,260.3611,99.7188,1.7849e-05,1.13e-06,0.0,0 STARLINK-3069,1 49176U 21082AY  22220.21172660  .00000113  00000-0  17849-4 0  9991,2 49176  69.9978 315.7284 0003176 260.3611  99.7188 14.96722294 50826,6955.169,96.21,579.243,574.825,0.0
49176.0,STARLINK-3069,PAYLOAD,2022-08-08 11:29:49,14.96724843,0.0003187,69.9977,315.056,260.0538,100.026,6.3151e-05,6.31e-06,0.0,0 STARLINK-3069,1 49176U 21082AY  22220.47905080  .00000631  00000-0  63151-4 0  9991,2 49176  69.9977 315.0560 0003187 260.0538 100.0260 14.96724843 50865,6955.161,96.21,579.243,574.81,0.0
49176.0,STARLINK-3069,PAYLOAD,2022-08-09 05:08:26,14.96726327,0.0003176,69.9977,313.207,260.6937,99.3863,0.00016179,1.761e-05,0.0,0 STARLINK-3069,1 49176U 21082AY  22221.21419615  .00001761  00000-0  16179-3 0  9990,2 49176  69.9977 313.2070 0003176 260.6937  99.3863 14.96726327 50978,6955.156999999997,96.21,579.231,574.813,0.0
49176.0,STARLINK-3069,PAYLOAD,2022-08-09 13:09:38,14.96720995,0.0003122,69.9977,312.3662,259.9499,100.1307,9.4983e-05,9.96e-06,0.0,0 STARLINK-3069,1 49176U 21082AY  22221.54835948  .00000996  00000-0  94983-4 0  9996,2 49176  69.9977 312.3662 0003122 259.9499 100.1307 14.96720995 51026,6955.1730000000025,96.21,579.2090000000002,574.867,0.0
49176.0,STARLINK-3069,PAYLOAD,2022-08-10 06:48:16,14.96714139,0.000343,69.997,310.5176,260.5254,99.5516,-4.0029e-05,-5.5e-06,0.0,0 STARLINK-3069,1 49176U 21082AY  22222.28351853 -.00000550  00000-0 -40029-4 0  9996,2 49176  69.9970 310.5176 0003430 260.5254  99.5516 14.96714139 51136,6955.194,96.211,579.445,574.674,0.0
49176.0,STARLINK-3069,PAYLOAD,2022-08-11 05:15:35,14.96735388,0.0003406,69.9959,308.1635,263.4789,96.5982,-0.00034508,-4.041e-05,0.0,0 STARLINK-3069,1 49176U 21082AY  22223.21916119 -.00004041  00000-0 -34508-3 0  9995,2 49176  69.9959 308.1635 0003406 263.4789  96.5982 14.96735388 51272,6955.128000000002,96.209,579.362,574.625,0.0
49176.0,STARLINK-3069,PAYLOAD,2022-08-11 13:16:47,14.96709269,0.0003086,69.9975,307.3237,259.6865,100.3945,-5.9864e-05,-7.77e-06,0.0,0 STARLINK-3069,1 49176U 21082AY  22223.55332951 -.00000777  00000-0 -59864-4 0  9993,2 49176  69.9975 307.3237 0003086 259.6865 100.3945 14.96709269 51323,6955.209,96.211,579.221,574.928,0.0
49176.0,STARLINK-3069,PAYLOAD,2022-08-11 16:29:15,14.96729975,0.0003467999999999,69.9969,306.987,262.1645,97.9119,-0.00041459,-4.836e-05,0.0,0 STARLINK-3069,1 49176U 21082AY  22223.68698654 -.00004836  00000-0 -41459-3 0  9992,2 49176  69.9969 306.9870 0003468 262.1645  97.9119 14.96729975 51345,6955.145,96.21,579.422,574.5980000000002,0.0
49176.0,STARLINK-3069,PAYLOAD,2022-08-12 05:19:10,14.96710757,0.0003202,69.997,305.6425,262.2765,97.8029,4.8344e-05,4.62e-06,0.0,0 STARLINK-3069,1 49176U 21082AY  22224.22164897  .00000462  00000-0  48344-4 0  9990,2 49176  69.9970 305.6425 0003202 262.2765  97.8029 14.96710757 51425,6955.205,96.211,579.297,574.8430000000002,0.0
49176.0,STARLINK-3069,PAYLOAD,2022-08-12 13:20:22,14.96690012,0.000301,69.9973,304.8016,261.0593,99.0225,0.00054309,6.126e-05,0.0,0 STARLINK-3069,1 49176U 21082AY  22224.55581229  .00006126  00000-0  54309-3 0  9998,2 49176  69.9973 304.8016 0003010 261.0593  99.0225 14.96690012 51476,6955.269,96.212,579.2280000000002,575.0409999999998,0.0
49176.0,STARLINK-3069,PAYLOAD,2022-08-12 14:56:35,14.96716797,0.0003176,69.9972,304.6337,261.0512,99.0287,7.5675e-05,7.75e-06,0.0,0 STARLINK-3069,1 49176U 21082AY  22224.62263690  .00000775  00000-0  75675-4 0  9999,2 49176  69.9972 304.6337 0003176 261.0512  99.0287 14.96716797 51481,6955.186,96.211,579.26,574.842,0.0
49176.0,STARLINK-3069,PAYLOAD,2022-08-13 13:23:56,14.96708532,0.0003302,69.9969,302.28,262.6753,97.403,5.856e-05,5.79e-06,0.0,0 STARLINK-3069,1 49176U 21082AY  22225.55829024  .00000579  00000-0  58560-4 0  9997,2 49176  69.9969 302.2800 0003302 262.6753  97.4030 14.96708532 51623,6955.212,96.211,579.373,574.78,0.0
49176.0,STARLINK-3069,PAYLOAD,2022-08-13 15:00:10,14.96707842,0.0003383,69.9965,302.1122,262.0614,98.0161,4.4045e-05,4.12e-06,0.0,0 STARLINK-3069,1 49176U 21082AY  22225.62512311  .00000412  00000-0  44045-4 0  9992,2 49176  69.9965 302.1122 0003383 262.0614  98.0161 14.96707842 51630,6955.214,96.211,579.432,574.726,0.0
49176.0,STARLINK-3069,PAYLOAD,2022-08-14 11:51:16,14.96710933,0.0003043,69.9983,299.9267,256.8365,103.2454,2.2567e-05,1.67e-06,0.0,0 STARLINK-3069,1 49176U 21082AY  22226.49394097  .00000167  00000-0  22567-4 0  9999,2 49176  69.9983 299.9267 0003043 256.8365 103.2454 14.96710933 51763,6955.204000000002,96.211,579.186,574.953,0.0
49176.0,STARLINK-3069,PAYLOAD,2022-08-14 15:03:44,14.96713097,0.0003054,69.9983,299.5906,256.4298,103.652,4.8772e-05,4.67e-06,0.0,0 STARLINK-3069,1 49176U 21082AY  22226.62760328  .00000467  00000-0  48772-4 0  9997,2 49176  69.9983 299.5906 0003054 256.4298 103.6520 14.96713097 51786,6955.198,96.211,579.187,574.938,0.0
49176.0,STARLINK-3069,PAYLOAD,2022-08-15 08:42:22,14.96715352,0.0002987,69.9988,297.7414,259.2411,100.8411,5.115e-05,4.94e-06,0.0,0 STARLINK-3069,1 49176U 21082AY  22227.36275477  .00000494  00000-0  51150-4 0  9999,2 49176  69.9988 297.7414 0002987 259.2411 100.8411 14.96715352 51893,6955.191,96.211,579.133,574.9780000000002,0.0
49176.0,STARLINK-3069,PAYLOAD,2022-08-15 15:07:19,14.96717783,0.000301,69.9987,297.069,259.8517,100.2302,6.162600000000001e-05,6.14e-06,0.0,0 STARLINK-3069,1 49176U 21082AY  22227.63008103  .00000614  00000-0  61626-4 0  9992,2 49176  69.9987 297.0690 0003010 259.8517 100.2302 14.96717783 51930,6955.183000000001,96.211,579.1419999999998,574.955,0.0
49176.0,STARLINK-3069,PAYLOAD,2022-08-16 11:58:25,14.96706357,0.000325,69.9986,294.8839,261.8175,98.2615,-1.2556e-06,-1.06e-06,0.0,0 STARLINK-3069,1 49176U 21082AY  22228.49890784 -.00000106  00000-0 -12556-5 0  9998,2 49176  69.9986 294.8839 0003250 261.8175  98.2615 14.96706357 52061,6955.218000000003,96.211,579.344,574.823,0.0
49176.0,STARLINK-3069,PAYLOAD,2022-08-17 12:01:59,14.96714666,0.0003373,69.9983,292.3626,264.2112,95.8662,1.4819000000000008e-05,7.8e-07,0.0,0 STARLINK-3069,1 49176U 21082AY  22229.50138556  .00000078  00000-0  14819-4 0  9992,2 49176  69.9983 292.3626 0003373 264.2112  95.8662 14.96714666 52213,6955.193,96.211,579.404,574.712,0.0
49176.0,STARLINK-3069,PAYLOAD,2022-08-18 10:29:19,14.96714758,0.0003296,69.9985,290.0094,260.9977,99.0808,0.00017601,1.923e-05,0.0,0 STARLINK-3069,1 49176U 21082AY  22230.43703000  .00001923  00000-0  17601-3 0  9999,2 49176  69.9985 290.0094 0003296 260.9977  99.0808 14.96714758 52350,6955.191999999999,96.211,579.35,574.765,0.0
49176.0,STARLINK-3069,PAYLOAD,2022-08-19 05:44:10,14.96725163,0.0003319,69.9984,287.9924,260.9074,99.1708,0.00018825,2.064e-05,0.0,0 STARLINK-3069,1 49176U 21082AY  22231.23900580  .00002064  00000-0  18825-3 0  9996,2 49176  69.9984 287.9924 0003319 260.9074  99.1708 14.96725163 52475,6955.16,96.21,579.3340000000002,574.717,0.0
49176.0,STARLINK-3069,PAYLOAD,2022-08-19 10:32:52,14.96727588,0.0003331,69.9984,287.4882,260.922,99.1561,0.00021325,2.351e-05,0.0,0 STARLINK-3069,1 49176U 21082AY  22231.43949929  .00002351  00000-0  21325-3 0  9996,2 49176  69.9984 287.4882 0003331 260.9220  99.1561 14.96727588 52504,6955.153,96.21,579.3340000000002,574.701,0.0
49176.0,STARLINK-3069,PAYLOAD,2022-08-20 05:47:44,14.96717708,0.0003279,69.9983,285.471,261.7048,98.3738,2.9492e-05,2.46e-06,0.0,0 STARLINK-3069,1 49176U 21082AY  22232.24149181  .00000246  00000-0  29492-4 0  9993,2 49176  69.9983 285.4710 0003279 261.7048  98.3738 14.96717708 52622,6955.183000000001,96.211,579.3290000000002,574.768,0.0
49176.0,STARLINK-3069,PAYLOAD,2022-08-20 10:36:27,14.96721294,0.0003279,69.9983,284.9669,261.8685,98.2101,3.8148e-05,3.45e-06,0.0,0 STARLINK-3069,1 49176U 21082AY  22232.44198522  .00000345  00000-0  38148-4 0  9996,2 49176  69.9983 284.9669 0003279 261.8685  98.2101 14.96721294 52658,6955.172,96.21,579.318,574.757,0.0
49176.0,STARLINK-3069,PAYLOAD,2022-08-20 20:13:53,14.96722353,0.0003259999999999,69.9983,283.9584,261.8133,98.2656,2.442300000000001e-05,1.88e-06,0.0,0 STARLINK-3069,1 49176U 21082AY  22232.84297482  .00000188  00000-0  24423-4 0  9991,2 49176  69.9983 283.9584 0003260 261.8133  98.2656 14.96722353 52710,6955.169,96.21,579.3009999999998,574.766,0.0
49176.0,STARLINK-3069,PAYLOAD,2022-08-21 12:16:15,14.96724445,0.0003153,69.9982,282.2773,260.8018,99.2784,2.5406e-05,1.99e-06,0.0,0 STARLINK-3069,1 49176U 21082AY  22233.51128996  .00000199  00000-0  25406-4 0  9993,2 49176  69.9982 282.2773 0003153 260.8018  99.2784 14.96724445 52811,6955.1619999999975,96.21,579.22,574.8340000000002,0.0
49176.0,STARLINK-3069,PAYLOAD,2022-08-21 20:17:27,14.96713702,0.0003117,69.9983,281.4353,264.0589,96.0214,-9.3987e-05,-1.167e-05,0.0,0 STARLINK-3069,1 49176U 21082AY  22233.84545812 -.00001167  00000-0 -93987-4 0  9996,2 49176  69.9983 281.4353 0003117 264.0589  96.0214 14.96713702 52868,6955.196,96.211,579.229,574.893,0.0
